{
  "type": "FeatureCollection",
  "features": [
    {
      "type": "Feature",
      "properties": {
        "norad_id": 34350,
        "name": "IRIDIUM 33 DEB",
        "group": "iridium-33-debris",
        "lat": -11.864226203371894,
        "lon": -1.324689789057288,
        "alt_km": 754.2167812633697,
        "timestamp": "2025-12-20T11:30:28.761182+00:00",
        "meta_object_name": "IRIDIUM 33 DEB",
        "meta_object_id": "1997-051ES",
        "meta_epoch": "2025-12-20T00:11:40.780032",
        "meta_mean_motion": 14.4540242,
        "meta_eccentricity": 0.0023333,
        "meta_inclination": 86.3271,
        "meta_ra_of_asc_node": 359.653,
        "meta_arg_of_pericenter": 112.8766,
        "meta_mean_anomaly": 304.2964,
        "meta_ephemeris_type": 0,
        "meta_classification_type": "U",
        "meta_norad_cat_id": 34350,
        "meta_element_set_no": 999,
        "meta_rev_at_epoch": 88398,
        "meta_bstar": 0.00022972,
        "meta_mean_motion_dot": 8.31e-06,
        "meta_mean_motion_ddot": 0,
        "tle_line1": "1 34350U 97051ES  25354.00811088  .00000831  00000+0  22972-3 0  9998",
        "tle_line2": "2 34350  86.3271 359.6530 0023333 112.8766 304.2964 14.45402420883980"
      },
      "geometry": {
        "type": "Point",
        "coordinates": [
          -1.324689789057288,
          -11.864226203371894
        ]
      }
    },
    {
      "type": "Feature",
      "properties": {
        "norad_id": 34366,
        "name": "IRIDIUM 33 DEB",
        "group": "iridium-33-debris",
        "lat": -18.62517384951597,
        "lon": -132.8264246318674,
        "alt_km": 715.4018275520775,
        "timestamp": "2025-12-20T11:30:28.761193+00:00",
        "meta_object_name": "IRIDIUM 33 DEB",
        "meta_object_id": "1997-051FJ",
        "meta_epoch": "2025-12-20T04:14:24.389952",
        "meta_mean_motion": 14.54111544,
        "meta_eccentricity": 0.0022965,
        "meta_inclination": 86.369,
        "meta_ra_of_asc_node": 46.079,
        "meta_arg_of_pericenter": 116.4779,
        "meta_mean_anomaly": 297.5797,
        "meta_ephemeris_type": 0,
        "meta_classification_type": "U",
        "meta_norad_cat_id": 34366,
        "meta_element_set_no": 999,
        "meta_rev_at_epoch": 88290,
        "meta_bstar": 0.00060149,
        "meta_mean_motion_dot": 2.57e-05,
        "meta_mean_motion_ddot": 0,
        "tle_line1": "1 34366U 97051FJ  25354.17667118  .00002570  00000+0  60149-3 0  9996",
        "tle_line2": "2 34366  86.3690  46.0790 0022965 116.4779 297.5797 14.54111544882904"
      },
      "geometry": {
        "type": "Point",
        "coordinates": [
          -132.8264246318674,
          -18.62517384951597
        ]
      }
    },
    {
      "type": "Feature",
      "properties": {
        "norad_id": 34375,
        "name": "IRIDIUM 33 DEB",
        "group": "iridium-33-debris",
        "lat": -10.576516538341872,
        "lon": 0.24787878798013802,
        "alt_km": 832.999889319336,
        "timestamp": "2025-12-20T11:30:28.761204+00:00",
        "meta_object_name": "IRIDIUM 33 DEB",
        "meta_object_id": "1997-051FT",
        "meta_epoch": "2025-12-19T23:28:28.676352",
        "meta_mean_motion": 14.18004758,
        "meta_eccentricity": 0.0103671,
        "meta_inclination": 86.4321,
        "meta_ra_of_asc_node": 179.7825,
        "meta_arg_of_pericenter": 104.0892,
        "meta_mean_anomaly": 47.2924,
        "meta_ephemeris_type": 0,
        "meta_classification_type": "U",
        "meta_norad_cat_id": 34375,
        "meta_element_set_no": 999,
        "meta_rev_at_epoch": 86814,
        "meta_bstar": 0.00031026,
        "meta_mean_motion_dot": 6.9e-06,
        "meta_mean_motion_ddot": 0,
        "tle_line1": "1 34375U 97051FT  25353.97810968  .00000690  00000+0  31026-3 0  9999",
        "tle_line2": "2 34375  86.4321 179.7825 0103671 104.0892  47.2924 14.18004758868142"
      },
      "geometry": {
        "type": "Point",
        "coordinates": [
          0.24787878798013802,
          -10.576516538341872
        ]
      }
    },
    {
      "type": "Feature",
      "properties": {
        "norad_id": 34376,
        "name": "IRIDIUM 33 DEB",
        "group": "iridium-33-debris",
        "lat": 2.8305929590783236,
        "lon": 3.243499012023973,
        "alt_km": 702.0095056413684,
        "timestamp": "2025-12-20T11:30:28.761213+00:00",
        "meta_object_name": "IRIDIUM 33 DEB",
        "meta_object_id": "1997-051FU",
        "meta_epoch": "2025-12-20T00:00:05.781024",
        "meta_mean_motion": 14.62658979,
        "meta_eccentricity": 0.0028024,
        "meta_inclination": 86.2977,
        "meta_ra_of_asc_node": 3.2756,
        "meta_arg_of_pericenter": 142.6893,
        "meta_mean_anomaly": 217.6272,
        "meta_ephemeris_type": 0,
        "meta_classification_type": "U",
        "meta_norad_cat_id": 34376,
        "meta_element_set_no": 999,
        "meta_rev_at_epoch": 88113,
        "meta_bstar": 0.00090432,
        "meta_mean_motion_dot": 4.647e-05,
        "meta_mean_motion_ddot": 0,
        "tle_line1": "1 34376U 97051FU  25354.00006691  .00004647  00000+0  90432-3 0  9997",
        "tle_line2": "2 34376  86.2977   3.2756 0028024 142.6893 217.6272 14.62658979881131"
      },
      "geometry": {
        "type": "Point",
        "coordinates": [
          3.243499012023973,
          2.8305929590783236
        ]
      }
    },
    {
      "type": "Feature",
      "properties": {
        "norad_id": 34486,
        "name": "IRIDIUM 33 DEB",
        "group": "iridium-33-debris",
        "lat": 67.30003885439174,
        "lon": 17.12505055927702,
        "alt_km": 563.49489529311,
        "timestamp": "2025-12-20T11:30:28.761238+00:00",
        "meta_object_name": "IRIDIUM 33 DEB",
        "meta_object_id": "1997-051GB",
        "meta_epoch": "2025-12-20T00:04:17.796000",
        "meta_mean_motion": 14.96101928,
        "meta_eccentricity": 0.0013908,
        "meta_inclination": 86.3929,
        "meta_ra_of_asc_node": 8.6716,
        "meta_arg_of_pericenter": 91.5412,
        "meta_mean_anomaly": 291.3403,
        "meta_ephemeris_type": 0,
        "meta_classification_type": "U",
        "meta_norad_cat_id": 34486,
        "meta_element_set_no": 999,
        "meta_rev_at_epoch": 89095,
        "meta_bstar": 0.0013547,
        "meta_mean_motion_dot": 0.00015301,
        "meta_mean_motion_ddot": 0,
        "tle_line1": "1 34486U 97051GB  25354.00298375  .00015301  00000+0  13547-2 0  9991",
        "tle_line2": "2 34486  86.3929   8.6716 0013908  91.5412 291.3403 14.96101928890959"
      },
      "geometry": {
        "type": "Point",
        "coordinates": [
          17.12505055927702,
          67.30003885439174
        ]
      }
    },
    {
      "type": "Feature",
      "properties": {
        "norad_id": 34487,
        "name": "IRIDIUM 33 DEB",
        "group": "iridium-33-debris",
        "lat": 54.81767452936307,
        "lon": 14.250013249218004,
        "alt_km": 727.2391162935737,
        "timestamp": "2025-12-20T11:30:28.761251+00:00",
        "meta_object_name": "IRIDIUM 33 DEB",
        "meta_object_id": "1997-051GC",
        "meta_epoch": "2025-12-20T01:30:57.119040",
        "meta_mean_motion": 14.43224791,
        "meta_eccentricity": 0.003319,
        "meta_inclination": 86.343,
        "meta_ra_of_asc_node": 9.2241,
        "meta_arg_of_pericenter": 105.5974,
        "meta_mean_anomaly": 307.9827,
        "meta_ephemeris_type": 0,
        "meta_classification_type": "U",
        "meta_norad_cat_id": 34487,
        "meta_element_set_no": 999,
        "meta_rev_at_epoch": 88354,
        "meta_bstar": 0.0001303,
        "meta_mean_motion_dot": 4.61e-06,
        "meta_mean_motion_ddot": 0,
        "tle_line1": "1 34487U 97051GC  25354.06316110  .00000461  00000+0  13030-3 0  9995",
        "tle_line2": "2 34487  86.3430   9.2241 0033190 105.5974 307.9827 14.43224791883548"
      },
      "geometry": {
        "type": "Point",
        "coordinates": [
          14.250013249218004,
          54.81767452936307
        ]
      }
    },
    {
      "type": "Feature",
      "properties": {
        "norad_id": 34488,
        "name": "IRIDIUM 33 DEB",
        "group": "iridium-33-debris",
        "lat": -71.53476014544057,
        "lon": -69.1256479246558,
        "alt_km": 482.0850406123027,
        "timestamp": "2025-12-20T11:30:28.761262+00:00",
        "meta_object_name": "IRIDIUM 33 DEB",
        "meta_object_id": "1997-051GD",
        "meta_epoch": "2025-12-20T00:50:30.763392",
        "meta_mean_motion": 15.31136537,
        "meta_eccentricity": 0.0011199,
        "meta_inclination": 86.3246,
        "meta_ra_of_asc_node": 302.194,
        "meta_arg_of_pericenter": 39.0214,
        "meta_mean_anomaly": 321.1841,
        "meta_ephemeris_type": 0,
        "meta_classification_type": "U",
        "meta_norad_cat_id": 34488,
        "meta_element_set_no": 999,
        "meta_rev_at_epoch": 89351,
        "meta_bstar": 0.00297,
        "meta_mean_motion_dot": 0.00090383,
        "meta_mean_motion_ddot": 0,
        "tle_line1": "1 34488U 97051GD  25354.03507828  .00090383  00000+0  29700-2 0  9993",
        "tle_line2": "2 34488  86.3246 302.1940 0011199  39.0214 321.1841 15.31136537893518"
      },
      "geometry": {
        "type": "Point",
        "coordinates": [
          -69.1256479246558,
          -71.53476014544057
        ]
      }
    }
  ]
}